start=new Date('2021-09-07T00:00:00.000Z').valueOf();
sats=[{"INCLINATION":"53.0561","MEAN_ELEMENT_THEORY":"SGP4","GP_ID":"184223715","ECCENTRICITY":"0.00009480","MEAN_MOTION_DOT":"-0.00000449","OBJECT_NAME":"STARLINK-1207","PERIAPSIS":"546.542","CENTER_NAME":"EARTH","SEMIMAJOR_AXIS":"6925.333","EPOCH":"2021-09-06T17:45:59.464512","MEAN_MOTION":"15.06404970","REV_AT_EPOCH":"8207","RA_OF_ASC_NODE":"331.0931","DECAY_DATE":null,"LAUNCH_DATE":"2020-03-18","ELEMENT_SET_NO":"999","TLE_LINE2":"2 45380  53.0561 331.0931 0000948 105.9010 254.2084 15.06404970 82077","ARG_OF_PERICENTER":"105.9010","NORAD_CAT_ID":"45380","EPHEMERIS_TYPE":"0","TLE_LINE1":"1 45380U 20019W   21249.74027158 -.00000449  00000-0 -11254-4 0  9990","APOAPSIS":"547.855","COUNTRY_CODE":"US","OBJECT_ID":"2020-019W","SITE":"AFETR","MEAN_ANOMALY":"254.2084","BSTAR":"-0.00001125400000","FILE":"3109923","TIME_SYSTEM":"UTC","OBJECT_TYPE":"PAYLOAD","RCS_SIZE":"LARGE","MEAN_MOTION_DDOT":"0.0000000000000","REF_FRAME":"TEME","PERIOD":"95.592","CLASSIFICATION_TYPE":"U"},{"FILE":"3109923","SITE":"AFETR","OBJECT_ID":"2020-019X","BSTAR":"0.00016063000000","MEAN_ANOMALY":"238.1208","REF_FRAME":"TEME","PERIOD":"95.592","CLASSIFICATION_TYPE":"U","OBJECT_TYPE":"PAYLOAD","TIME_SYSTEM":"UTC","RCS_SIZE":"LARGE","MEAN_MOTION_DDOT":"0.0000000000000","NORAD_CAT_ID":"45381","TLE_LINE2":"2 45381  53.0542 331.0475 0000889 121.9867 238.1208 15.06408376 82075","ARG_OF_PERICENTER":"121.9867","ELEMENT_SET_NO":"999","APOAPSIS":"547.804","COUNTRY_CODE":"US","TLE_LINE1":"1 45381U 20019X   21249.75132552  .00002113  00000-0  16063-3 0  9997","EPHEMERIS_TYPE":"0","DECAY_DATE":null,"EPOCH":"2021-09-06T18:01:54.524928","SEMIMAJOR_AXIS":"6925.323","REV_AT_EPOCH":"8207","RA_OF_ASC_NODE":"331.0475","MEAN_MOTION":"15.06408376","LAUNCH_DATE":"2020-03-18","ECCENTRICITY":"0.00008890","GP_ID":"184224465","INCLINATION":"53.0542","MEAN_ELEMENT_THEORY":"SGP4","CENTER_NAME":"EARTH","PERIAPSIS":"546.572","OBJECT_NAME":"STARLINK-1258","MEAN_MOTION_DOT":"0.00002113"},{"REV_AT_EPOCH":"8188","RA_OF_ASC_NODE":"331.4413","MEAN_MOTION":"15.06410577","EPOCH":"2021-09-06T15:54:30.921696","SEMIMAJOR_AXIS":"6925.316","DECAY_DATE":null,"LAUNCH_DATE":"2020-03-18","MEAN_ELEMENT_THEORY":"SGP4","INCLINATION":"53.0560","ECCENTRICITY":"0.00008270","GP_ID":"184223213","MEAN_MOTION_DOT":"-0.00000719","PERIAPSIS":"546.608","CENTER_NAME":"EARTH","OBJECT_NAME":"STARLINK-1264","BSTAR":"-0.00002939800000","MEAN_ANOMALY":"241.3982","SITE":"AFETR","OBJECT_ID":"2020-019Y","FILE":"3109923","RCS_SIZE":"LARGE","MEAN_MOTION_DDOT":"0.0000000000000","OBJECT_TYPE":"PAYLOAD","TIME_SYSTEM":"UTC","CLASSIFICATION_TYPE":"U","PERIOD":"95.591","REF_FRAME":"TEME","ARG_OF_PERICENTER":"118.7090","TLE_LINE2":"2 45382  53.0560 331.4413 0000827 118.7090 241.3982 15.06410577 81885","ELEMENT_SET_NO":"999","NORAD_CAT_ID":"45382","EPHEMERIS_TYPE":"0","TLE_LINE1":"1 45382U 20019Y   21249.66285789 -.00000719  00000-0 -29398-4 0  9997","COUNTRY_CODE":"US","APOAPSIS":"547.754"},{"NORAD_CAT_ID":"45383","TLE_LINE2":"2 45383  53.0549 331.6752 0001099 133.1647 226.9434 15.06393533 82055","ARG_OF_PERICENTER":"133.1647","ELEMENT_SET_NO":"999","APOAPSIS":"547.994","COUNTRY_CODE":"US","TLE_LINE1":"1 45383U 20019Z   21249.61126795 -.00000715  00000-0 -29099-4 0  9998","EPHEMERIS_TYPE":"0","FILE":"3109923","SITE":"AFETR","OBJECT_ID":"2020-019Z","BSTAR":"-0.00002909900000","MEAN_ANOMALY":"226.9434","REF_FRAME":"TEME","PERIOD":"95.593","CLASSIFICATION_TYPE":"U","TIME_SYSTEM":"UTC","OBJECT_TYPE":"PAYLOAD","RCS_SIZE":"LARGE","MEAN_MOTION_DDOT":"0.0000000000000","ECCENTRICITY":"0.00010990","GP_ID":"184222964","INCLINATION":"53.0549","MEAN_ELEMENT_THEORY":"SGP4","PERIAPSIS":"546.472","CENTER_NAME":"EARTH","OBJECT_NAME":"STARLINK-1266","MEAN_MOTION_DOT":"-0.00000715","DECAY_DATE":null,"EPOCH":"2021-09-06T14:40:13.550880","SEMIMAJOR_AXIS":"6925.368","RA_OF_ASC_NODE":"331.6752","REV_AT_EPOCH":"8205","MEAN_MOTION":"15.06393533","LAUNCH_DATE":"2020-03-18"},{"DECAY_DATE":null,"SEMIMAJOR_AXIS":"6925.377","EPOCH":"2021-09-06T17:35:23.249472","MEAN_MOTION":"15.06390777","RA_OF_ASC_NODE":"331.1127","REV_AT_EPOCH":"8207","LAUNCH_DATE":"2020-03-18","GP_ID":"184224215","ECCENTRICITY":"0.00010840","INCLINATION":"53.0540","MEAN_ELEMENT_THEORY":"SGP4","OBJECT_NAME":"STARLINK-1267","CENTER_NAME":"EARTH","PERIAPSIS":"546.491","MEAN_MOTION_DOT":"0.00000004","FILE":"3109923","OBJECT_ID":"2020-019AA","SITE":"AFETR","MEAN_ANOMALY":"234.7329","BSTAR":"0.00001917200000","REF_FRAME":"TEME","CLASSIFICATION_TYPE":"U","PERIOD":"95.593","OBJECT_TYPE":"PAYLOAD","TIME_SYSTEM":"UTC","MEAN_MOTION_DDOT":"0.0000000000000","RCS_SIZE":"LARGE","NORAD_CAT_ID":"45384","ELEMENT_SET_NO":"999","TLE_LINE2":"2 45384  53.0540 331.1127 0001084 125.3762 234.7329 15.06390777 82072","ARG_OF_PERICENTER":"125.3762","APOAPSIS":"547.993","COUNTRY_CODE":"US","EPHEMERIS_TYPE":"0","TLE_LINE1":"1 45384U 20019AA  21249.73290798  .00000004  00000-0  19172-4 0  9997"},{"FILE":"3109923","BSTAR":"0.00006919100000","MEAN_ANOMALY":"255.2091","SITE":"AFETR","OBJECT_ID":"2020-019AC","CLASSIFICATION_TYPE":"U","PERIOD":"95.592","REF_FRAME":"TEME","MEAN_MOTION_DDOT":"0.0000000000000","RCS_SIZE":"LARGE","TIME_SYSTEM":"UTC","OBJECT_TYPE":"PAYLOAD","NORAD_CAT_ID":"45386","TLE_LINE2":"2 45386  53.0549 331.1124 0001322 104.9044 255.2091 15.06399059 82077","ARG_OF_PERICENTER":"104.9044","ELEMENT_SET_NO":"999","COUNTRY_CODE":"US","APOAPSIS":"548.132","EPHEMERIS_TYPE":"0","TLE_LINE1":"1 45386U 20019AC  21249.73658678  .00000749  00000-0  69191-4 0  9996","DECAY_DATE":null,"REV_AT_EPOCH":"8207","RA_OF_ASC_NODE":"331.1124","MEAN_MOTION":"15.06399059","EPOCH":"2021-09-06T17:40:41.097792","SEMIMAJOR_AXIS":"6925.351","LAUNCH_DATE":"2020-03-18","ECCENTRICITY":"0.00013220","GP_ID":"184223966","MEAN_ELEMENT_THEORY":"SGP4","INCLINATION":"53.0549","PERIAPSIS":"546.301","CENTER_NAME":"EARTH","OBJECT_NAME":"STARLINK-1272","MEAN_MOTION_DOT":"0.00000749"},{"EPHEMERIS_TYPE":"0","TLE_LINE1":"1 45387U 20019AD  21249.69235047 -.00000178  00000-0  69598-5 0  9992","COUNTRY_CODE":"US","APOAPSIS":"547.852","ELEMENT_SET_NO":"999","TLE_LINE2":"2 45387  53.0549 331.3119 0000950 106.2655 253.8438 15.06406257 82060","ARG_OF_PERICENTER":"106.2655","NORAD_CAT_ID":"45387","MEAN_MOTION_DDOT":"0.0000000000000","RCS_SIZE":"LARGE","OBJECT_TYPE":"PAYLOAD","TIME_SYSTEM":"UTC","CLASSIFICATION_TYPE":"U","PERIOD":"95.592","REF_FRAME":"TEME","MEAN_ANOMALY":"253.8438","BSTAR":"0.00000695980000","OBJECT_ID":"2020-019AD","SITE":"AFETR","FILE":"3109923","MEAN_MOTION_DOT":"-0.00000178","OBJECT_NAME":"STARLINK-1274","CENTER_NAME":"EARTH","PERIAPSIS":"546.536","MEAN_ELEMENT_THEORY":"SGP4","INCLINATION":"53.0549","GP_ID":"184222714","ECCENTRICITY":"0.00009500","LAUNCH_DATE":"2020-03-18","MEAN_MOTION":"15.06406257","REV_AT_EPOCH":"8206","RA_OF_ASC_NODE":"331.3119","SEMIMAJOR_AXIS":"6925.329","EPOCH":"2021-09-06T16:36:59.080608","DECAY_DATE":null},{"MEAN_MOTION_DOT":"-0.00000056","OBJECT_NAME":"STARLINK-1280","PERIAPSIS":"546.567","CENTER_NAME":"EARTH","INCLINATION":"53.0556","MEAN_ELEMENT_THEORY":"SGP4","GP_ID":"184223464","ECCENTRICITY":"0.00008940","LAUNCH_DATE":"2020-03-18","SEMIMAJOR_AXIS":"6925.321","EPOCH":"2021-09-06T15:51:52.792416","MEAN_MOTION":"15.06408937","RA_OF_ASC_NODE":"351.4428","REV_AT_EPOCH":"8177","DECAY_DATE":null,"TLE_LINE1":"1 45388U 20019AE  21249.66102769 -.00000056  00000-0  15136-4 0  9997","EPHEMERIS_TYPE":"0","APOAPSIS":"547.805","COUNTRY_CODE":"US","ELEMENT_SET_NO":"999","TLE_LINE2":"2 45388  53.0556 351.4428 0000894 146.9770 213.1275 15.06408937 81773","ARG_OF_PERICENTER":"146.9770","NORAD_CAT_ID":"45388","TIME_SYSTEM":"UTC","OBJECT_TYPE":"PAYLOAD","RCS_SIZE":"LARGE","MEAN_MOTION_DDOT":"0.0000000000000","REF_FRAME":"TEME","CLASSIFICATION_TYPE":"U","PERIOD":"95.592","OBJECT_ID":"2020-019AE","SITE":"AFETR","MEAN_ANOMALY":"213.1275","BSTAR":"0.00001513600000","FILE":"3109923"},{"EPOCH":"2021-09-06T16:58:13.458144","SEMIMAJOR_AXIS":"6925.283","REV_AT_EPOCH":"8207","RA_OF_ASC_NODE":"331.2311","MEAN_MOTION":"15.06421340","DECAY_DATE":null,"LAUNCH_DATE":"2020-03-18","INCLINATION":"53.0538","MEAN_ELEMENT_THEORY":"SGP4","ECCENTRICITY":"0.00009920","GP_ID":"184223716","MEAN_MOTION_DOT":"0.00000163","CENTER_NAME":"EARTH","PERIAPSIS":"546.461","OBJECT_NAME":"STARLINK-1283","SITE":"AFETR","OBJECT_ID":"2020-019AF","BSTAR":"0.00002978900000","MEAN_ANOMALY":"244.7540","FILE":"3109923","OBJECT_TYPE":"PAYLOAD","TIME_SYSTEM":"UTC","MEAN_MOTION_DDOT":"0.0000000000000","RCS_SIZE":"LARGE","REF_FRAME":"TEME","CLASSIFICATION_TYPE":"U","PERIOD":"95.591","TLE_LINE2":"2 45389  53.0538 331.2311 0000992 115.3552 244.7540 15.06421340 82070","ARG_OF_PERICENTER":"115.3552","ELEMENT_SET_NO":"999","NORAD_CAT_ID":"45389","EPHEMERIS_TYPE":"0","TLE_LINE1":"1 45389U 20019AF  21249.70710021  .00000163  00000-0  29789-4 0  9996","APOAPSIS":"547.835","COUNTRY_CODE":"US"},{"COUNTRY_CODE":"US","APOAPSIS":"547.902","TLE_LINE1":"1 45390U 20019AG  21249.01782796  .00000690  00000-0  65225-4 0  9990","EPHEMERIS_TYPE":"0","NORAD_CAT_ID":"45390","ELEMENT_SET_NO":"999","ARG_OF_PERICENTER":"117.8945","TLE_LINE2":"2 45390  53.0561 334.3361 0000998 117.8945 242.2145 15.06400813 81969","CLASSIFICATION_TYPE":"U","PERIOD":"95.592","REF_FRAME":"TEME","RCS_SIZE":"LARGE","MEAN_MOTION_DDOT":"0.0000000000000","OBJECT_TYPE":"PAYLOAD","TIME_SYSTEM":"UTC","FILE":"3109699","MEAN_ANOMALY":"242.2145","BSTAR":"0.00006522500000","OBJECT_ID":"2020-019AG","SITE":"AFETR","OBJECT_NAME":"STARLINK-1284","PERIAPSIS":"546.520","CENTER_NAME":"EARTH","MEAN_MOTION_DOT":"0.00000690","GP_ID":"184194789","ECCENTRICITY":"0.00009980","MEAN_ELEMENT_THEORY":"SGP4","INCLINATION":"53.0561","LAUNCH_DATE":"2020-03-18","DECAY_DATE":null,"MEAN_MOTION":"15.06400813","RA_OF_ASC_NODE":"334.3361","REV_AT_EPOCH":"8196","SEMIMAJOR_AXIS":"6925.346","EPOCH":"2021-09-06T00:25:40.335744"}];
